{
    "links": {
        "self": "http://www.neowsapp.com/rest/v1/neo/3752417?api_key=iIulBulltgU6a56xZRHN4H3l9WmuAYTsLGpBGhQ2"
    },
    "id": "3752417",
    "neo_reference_id": "3752417",
    "name": "(2016 HN2)",
    "designation": "2016 HN2",
    "nasa_jpl_url": "http://ssd.jpl.nasa.gov/sbdb.cgi?sstr=3752417",
    "absolute_magnitude_h": 23.5,
    "estimated_diameter": {
        "kilometers": {
            "estimated_diameter_min": 0.0530340723,
            "estimated_diameter_max": 0.1185877909
        },
        "meters": {
            "estimated_diameter_min": 53.0340723319,
            "estimated_diameter_max": 118.5877908577
        },
        "miles": {
            "estimated_diameter_min": 0.0329538346,
            "estimated_diameter_max": 0.0736870142
        },
        "feet": {
            "estimated_diameter_min": 173.9963058693,
            "estimated_diameter_max": 389.0675677576
        }
    },
    "is_potentially_hazardous_asteroid": false,
    "close_approach_data": [
        {
            "close_approach_date": "2013-05-29",
            "close_approach_date_full": "2013-May-29 19:03",
            "epoch_date_close_approach": 1369854180000,
            "relative_velocity": {
                "kilometers_per_second": "21.9408209492",
                "kilometers_per_hour": "78986.9554172896",
                "miles_per_hour": "49079.4223813708"
            },
            "miss_distance": {
                "astronomical": "0.4308307079",
                "lunar": "167.5931453731",
                "kilometers": "64451356.232432173",
                "miles": "40048215.7023950674"
            },
            "orbiting_body": "Earth"
        },
        {
            "close_approach_date": "2016-04-20",
            "close_approach_date_full": "2016-Apr-20 15:40",
            "epoch_date_close_approach": 1461166800000,
            "relative_velocity": {
                "kilometers_per_second": "8.7568911188",
                "kilometers_per_hour": "31524.8080275075",
                "miles_per_hour": "19588.2897435366"
            },
            "miss_distance": {
                "astronomical": "0.0630588385",
                "lunar": "24.5298881765",
                "kilometers": "9433467.924273995",
                "miles": "5861685.158191331"
            },
            "orbiting_body": "Earth"
        },
        {
            "close_approach_date": "2019-01-27",
            "close_approach_date_full": "2019-Jan-27 13:49",
            "epoch_date_close_approach": 1548596940000,
            "relative_velocity": {
                "kilometers_per_second": "16.3217797049",
                "kilometers_per_hour": "58758.4069377797",
                "miles_per_hour": "36510.1890219776"
            },
            "miss_distance": {
                "astronomical": "0.2447070002",
                "lunar": "95.1910230778",
                "kilometers": "36607646.004009574",
                "miles": "22746936.4374331612"
            },
            "orbiting_body": "Earth"
        }
    ],
    "orbital_data": {
        "orbit_id": "17",
        "orbit_determination_date": "2019-12-04 07:15:43",
        "first_observation_date": "2016-04-26",
        "last_observation_date": "2016-06-06",
        "data_arc_in_days": 41,
        "observations_used": 56,
        "orbit_uncertainty": "6",
        "minimum_orbit_intersection": ".0610243",
        "jupiter_tisserand_invariant": "3.603",
        "epoch_osculation": "2459000.5",
        "eccentricity": ".5322311286224859",
        "semi_major_axis": "2.045122418641365",
        "inclination": "4.484498136454421",
        "ascending_node_longitude": "83.1714244061525",
        "orbital_period": "1068.261043300394",
        "perihelion_distance": ".9566446055967234",
        "perihelion_argument": "96.58741682022917",
        "aphelion_distance": "3.133600231686007",
        "perihelion_time": "2458543.317740361611",
        "mean_anomaly": "154.0687217810852",
        "mean_motion": ".3369962821893978",
        "equinox": "J2000",
        "orbit_class": {
            "orbit_class_type": "APO",
            "orbit_class_description": "Near-Earth asteroid orbits which cross the Earth’s orbit similar to that of 1862 Apollo",
            "orbit_class_range": "a (semi-major axis) > 1.0 AU; q (perihelion) < 1.017 AU"
        }
    },
    "is_sentry_object": false
}